{"type": "FeatureCollection", "features": [ {"type": "Feature", "properties": {"norad_id": 33492, "name": "GOSAT (IBUKI)", "group": "resource", "lat": 76.06178177102848, "lon": -41.004813690233476, "alt_km": 661.0298262014403, "timestamp": "2025-12-21T14:40:47.567411+00:00", "meta": {"OBJECT_NAME": "GOSAT (IBUKI)", "OBJECT_ID": "2009-002A", "EPOCH": "2025-12-21T06:02:16.249344", "MEAN_MOTION": 14.67540638, "ECCENTRICITY": 9.905e-05, "INCLINATION": 98.0772, "RA_OF_ASC_NODE": 103.7366, "ARG_OF_PERICENTER": 101.6398, "MEAN_ANOMALY": 258.4918, "EPHEMERIS_TYPE": 0, "CLASSIFICATION_TYPE": "U", "NORAD_CAT_ID": 33492, "ELEMENT_SET_NO": 999, "REV_AT_EPOCH": 90536, "BSTAR": 0.0001252109, "MEAN_MOTION_DOT": 6.62e-06, "MEAN_MOTION_DDOT": 0}, "tle": {"line1": "1 33492U 09002A   25355.25157696  .00000662  00000+0  12521-3 0  9990", "line2": "2 33492  98.0772 103.7366 0000990 101.6398 258.4918 14.67540638905362"}}, "geometry": {"type": "Point", "coordinates": [-41.004813690233476, 76.06178177102848]}}, {"type": "Feature", "properties": {"norad_id": 35681, "name": "DEIMOS-1", "group": "resource", "lat": 54.633736030132226, "lon": 144.79143497040704, "alt_km": 638.3105129965279, "timestamp": "2025-12-21T14:40:47.567422+00:00", "meta": {"OBJECT_NAME": "DEIMOS-1", "OBJECT_ID": "2009-041A", "EPOCH": "2025-12-21T06:17:20.510016", "MEAN_MOTION": 14.7496328, "ECCENTRICITY": 0.00025927, "INCLINATION": 97.7146, "RA_OF_ASC_NODE": 155.4684, "ARG_OF_PERICENTER": 66.3377, "MEAN_ANOMALY": 293.8105, "EPHEMERIS_TYPE": 0, "CLASSIFICATION_TYPE": "U", "NORAD_CAT_ID": 35681, "ELEMENT_SET_NO": 999, "REV_AT_EPOCH": 88065, "BSTAR": 3.8588828e-05, "MEAN_MOTION_DOT": 2.12e-06, "MEAN_MOTION_DDOT": 0}, "tle": {"line1": "1 35681U 09041A   25355.26204294  .00000212  00000+0  38589-4 0  9997", "line2": "2 35681  97.7146 155.4684 0002592  66.3377 293.8105 14.74963280880651"}}, "geometry": {"type": "Point", "coordinates": [144.79143497040704, 54.633736030132226]}}, {"type": "Feature", "properties": {"norad_id": 35682, "name": "DUBAISAT-1", "group": "resource", "lat": -20.25145107472635, "lon": 129.12760793528233, "alt_km": 648.0039546688258, "timestamp": "2025-12-21T14:40:47.567433+00:00", "meta": {"OBJECT_NAME": "DUBAISAT-1", "OBJECT_ID": "2009-041B", "EPOCH": "2025-12-20T20:51:31.286304", "MEAN_MOTION": 14.74624249, "ECCENTRICITY": 0.0009246, "INCLINATION": 97.9798, "RA_OF_ASC_NODE": 125.4295, "ARG_OF_PERICENTER": 285.257, "MEAN_ANOMALY": 74.7616, "EPHEMERIS_TYPE": 0, "CLASSIFICATION_TYPE": "U", "NORAD_CAT_ID": 35682, "ELEMENT_SET_NO": 999, "REV_AT_EPOCH": 87881, "BSTAR": 0.0001417, "MEAN_MOTION_DOT": 8.95e-06, "MEAN_MOTION_DDOT": 0}, "tle": {"line1": "1 35682U 09041B   25354.86911211  .00000895  00000+0  14170-3 0  9993", "line2": "2 35682  97.9798 125.4295 0009246 285.2570  74.7616 14.74624249878819"}}, "geometry": {"type": "Point", "coordinates": [129.12760793528233, -20.25145107472635]}}, {"type": "Feature", "properties": {"norad_id": 35931, "name": "OCEANSAT-2", "group": "resource", "lat": -72.81723381897952, "lon": 23.187966050017494, "alt_km": 903.7053670609084, "timestamp": "2025-12-21T14:40:47.567444+00:00", "meta": {"OBJECT_NAME": "OCEANSAT-2", "OBJECT_ID": "2009-051A", "EPOCH": "2025-12-21T06:27:28.734048", "MEAN_MOTION": 13.99623027, "ECCENTRICITY": 0.00159999, "INCLINATION": 98.2217, "RA_OF_ASC_NODE": 355.0043, "ARG_OF_PERICENTER": 22.6982, "MEAN_ANOMALY": 337.4889, "EPHEMERIS_TYPE": 0, "CLASSIFICATION_TYPE": "U", "NORAD_CAT_ID": 35931, "ELEMENT_SET_NO": 999, "REV_AT_EPOCH": 85444, "BSTAR": -5.0575325e-05, "MEAN_MOTION_DOT": -1.11e-06, "MEAN_MOTION_DDOT": 0}, "tle": {"line1": "1 35931U 09051A   25355.26908257 -.00000111  00000+0 -50575-4 0  9995", "line2": "2 35931  98.2217 355.0043 0015999  22.6982 337.4889 13.99623027854443"}}, "geometry": {"type": "Point", "coordinates": [23.187966050017494, -72.81723381897952]}}, {"type": "Feature", "properties": {"norad_id": 35946, "name": "WORLDVIEW-2 (WV-2)", "group": "resource", "lat": -2.2628893675615966, "lon": -113.76325356500708, "alt_km": 771.6551109089223, "timestamp": "2025-12-21T14:40:47.567454+00:00", "meta": {"OBJECT_NAME": "WORLDVIEW-2 (WV-2)", "OBJECT_ID": "2009-055A", "EPOCH": "2025-12-21T05:29:03.486048", "MEAN_MOTION": 14.37727486, "ECCENTRICITY": 0.00048882, "INCLINATION": 98.4778, "RA_OF_ASC_NODE": 66.1966, "ARG_OF_PERICENTER": 49.8394, "MEAN_ANOMALY": 310.3221, "EPHEMERIS_TYPE": 0, "CLASSIFICATION_TYPE": "U", "NORAD_CAT_ID": 35946, "ELEMENT_SET_NO": 999, "REV_AT_EPOCH": 85007, "BSTAR": 5.9773344e-05, "MEAN_MOTION_DOT": 1.36e-06, "MEAN_MOTION_DDOT": 0}, "tle": {"line1": "1 35946U 09055A   25355.22851257  .00000136  00000+0  59773-4 0  9992", "line2": "2 35946  98.4778  66.1966 0004888  49.8394 310.3221 14.37727486850072"}}, "geometry": {"type": "Point", "coordinates": [-113.76325356500708, -2.2628893675615966]}}, {"type": "Feature", "properties": {"norad_id": 36036, "name": "SMOS", "group": "resource", "lat": -75.40817714561572, "lon": -144.70663663518792, "alt_km": 767.3613019213508, "timestamp": "2025-12-21T14:40:47.567464+00:00", "meta": {"OBJECT_NAME": "SMOS", "OBJECT_ID": "2009-059A", "EPOCH": "2025-12-21T06:42:08.534880", "MEAN_MOTION": 14.39748387, "ECCENTRICITY": 0.00010725, "INCLINATION": 98.438, "RA_OF_ASC_NODE": 180.2013, "ARG_OF_PERICENTER": 83.9663, "MEAN_ANOMALY": 276.1647, "EPHEMERIS_TYPE": 0, "CLASSIFICATION_TYPE": "U", "NORAD_CAT_ID": 36036, "ELEMENT_SET_NO": 999, "REV_AT_EPOCH": 84785, "BSTAR": 0.0001133037, "MEAN_MOTION_DOT": 3.12e-06, "MEAN_MOTION_DDOT": 0}, "tle": {"line1": "1 36036U 09059A   25355.27926545  .00000312  00000+0  11330-3 0  9997", "line2": "2 36036  98.4380 180.2013 0001072  83.9663 276.1647 14.39748387847851"}}, "geometry": {"type": "Point", "coordinates": [-144.70663663518792, -75.40817714561572]}}, {"type": "Feature", "properties": {"norad_id": 36110, "name": "YAOGAN-7", "group": "resource", "lat": -57.53071363083771, "lon": 44.519329503343855, "alt_km": 627.563024131684, "timestamp": "2025-12-21T14:40:47.567475+00:00", "meta": {"OBJECT_NAME": "YAOGAN-7", "OBJECT_ID": "2009-069A", "EPOCH": "2025-12-21T05:28:39.332064", "MEAN_MOTION": 14.77743925, "ECCENTRICITY": 0.00233603, "INCLINATION": 98.0296, "RA_OF_ASC_NODE": 236.9547, "ARG_OF_PERICENTER": 252.3339, "MEAN_ANOMALY": 107.532, "EPHEMERIS_TYPE": 0, "CLASSIFICATION_TYPE": "U", "NORAD_CAT_ID": 36110, "ELEMENT_SET_NO": 999, "REV_AT_EPOCH": 86334, "BSTAR": 7.8255778e-05, "MEAN_MOTION_DOT": 5.1e-06, "MEAN_MOTION_DDOT": 0}, "tle": {"line1": "1 36110U 09069A   25355.22823301  .00000510  00000+0  78256-4 0  9993", "line2": "2 36110  98.0296 236.9547 0023360 252.3339 107.5320 14.77743925863345"}}, "geometry": {"type": "Point", "coordinates": [44.519329503343855, -57.53071363083771]}}, {"type": "Feature", "properties": {"norad_id": 36605, "name": "TANDEM-X", "group": "resource", "lat": 4.2426936115638645, "lon": 0.30658875814897574, "alt_km": 510.480784479716, "timestamp": "2025-12-21T14:40:47.567485+00:00", "meta": {"OBJECT_NAME": "TANDEM-X", "OBJECT_ID": "2010-030A", "EPOCH": "2025-12-20T11:47:12.909696", "MEAN_MOTION": 15.19154059, "ECCENTRICITY": 0.00018, "INCLINATION": 97.4444, "RA_OF_ASC_NODE": 359.7582, "ARG_OF_PERICENTER": 78.1402, "MEAN_ANOMALY": 282.0034, "EPHEMERIS_TYPE": 0, "CLASSIFICATION_TYPE": "U", "NORAD_CAT_ID": 36605, "ELEMENT_SET_NO": 999, "REV_AT_EPOCH": 85951, "BSTAR": 3.1882e-05, "MEAN_MOTION_DOT": 6.03e-06, "MEAN_MOTION_DDOT": 0}, "tle": {"line1": "1 36605U 10030A   25354.49112164  .00000603  00000+0  31882-4 0  9995", "line2": "2 36605  97.4444 359.7582 0001800  78.1402 282.0034 15.19154059859511"}}, "geometry": {"type": "Point", "coordinates": [0.30658875814897574, 4.2426936115638645]}}, {"type": "Feature", "properties": {"norad_id": 36795, "name": "CARTOSAT-2B", "group": "resource", "lat": -17.32883419837748, "lon": -138.09244268316854, "alt_km": 645.7984821037853, "timestamp": "2025-12-21T14:40:47.567494+00:00", "meta": {"OBJECT_NAME": "CARTOSAT-2B", "OBJECT_ID": "2010-035A", "EPOCH": "2025-12-21T07:17:41.737920", "MEAN_MOTION": 14.78736648, "ECCENTRICITY": 0.00127842, "INCLINATION": 97.7844, "RA_OF_ASC_NODE": 44.0562, "ARG_OF_PERICENTER": 51.4212, "MEAN_ANOMALY": 308.8142, "EPHEMERIS_TYPE": 0, "CLASSIFICATION_TYPE": "U", "NORAD_CAT_ID": 36795, "ELEMENT_SET_NO": 999, "REV_AT_EPOCH": 83356, "BSTAR": 0.00012002262, "MEAN_MOTION_DOT": 8.32e-06, "MEAN_MOTION_DDOT": 0}, "tle": {"line1": "1 36795U 10035A   25355.30395530  .00000832  00000+0  12002-3 0  9997", "line2": "2 36795  97.7844  44.0562 0012784  51.4212 308.8142 14.78736648833564"}}, "geometry": {"type": "Point", "coordinates": [-138.09244268316854, -17.32883419837748]}}, {"type": "Feature", "properties": {"norad_id": 36834, "name": "YAOGAN-10", "group": "resource", "lat": 72.5869220439832, "lon": -138.30812880670132, "alt_km": 606.9029728344221, "timestamp": "2025-12-21T14:40:47.567505+00:00", "meta": {"OBJECT_NAME": "YAOGAN-10", "OBJECT_ID": "2010-038A", "EPOCH": "2025-12-21T07:47:48.649632", "MEAN_MOTION": 14.84635812, "ECCENTRICITY": 0.0001383, "INCLINATION": 97.9131, "RA_OF_ASC_NODE": 15.0813, "ARG_OF_PERICENTER": 78.0216, "MEAN_ANOMALY": 295.6172, "EPHEMERIS_TYPE": 0, "CLASSIFICATION_TYPE": "U", "NORAD_CAT_ID": 36834, "ELEMENT_SET_NO": 999, "REV_AT_EPOCH": 83081, "BSTAR": 0.00011740353, "MEAN_MOTION_DOT": 9.39e-06, "MEAN_MOTION_DDOT": 0}, "tle": {"line1": "1 36834U 10038A   25355.32486863  .00000939  00000+0  11740-3 0  9992", "line2": "2 36834  97.9131  15.0813 0001383  78.0216 295.6172 14.84635812830817"}}, "geometry": {"type": "Point", "coordinates": [-138.30812880670132, 72.5869220439832]}}]}